{
  "links" : {
    "next" : "https://api.nasa.gov/neo/rest/v1/feed?start_date=2001-10-16&end_date=2001-10-16&detailed=true&api_key=t0TVs3DtDT2H8Oy2Zy8m2eVrNsAVKAexjcZXUckd",
    "prev" : "https://api.nasa.gov/neo/rest/v1/feed?start_date=2001-10-14&end_date=2001-10-14&detailed=true&api_key=t0TVs3DtDT2H8Oy2Zy8m2eVrNsAVKAexjcZXUckd",
    "self" : "https://api.nasa.gov/neo/rest/v1/feed?start_date=2001-10-15&end_date=2001-10-15&detailed=true&api_key=t0TVs3DtDT2H8Oy2Zy8m2eVrNsAVKAexjcZXUckd"
  },
  "element_count" : 7,
  "near_earth_objects" : {
    "2001-10-15" : [ {
      "links" : {
        "self" : "https://api.nasa.gov/neo/rest/v1/neo/3780786?api_key=t0TVs3DtDT2H8Oy2Zy8m2eVrNsAVKAexjcZXUckd"
      },
      "neo_reference_id" : "3780786",
      "name" : "(2017 QY2)",
      "nasa_jpl_url" : "http://ssd.jpl.nasa.gov/sbdb.cgi?sstr=3780786",
      "absolute_magnitude_h" : 21.378,
      "estimated_diameter" : {
        "kilometers" : {
          "estimated_diameter_min" : 0.1409142705,
          "estimated_diameter_max" : 0.3150938878
        },
        "meters" : {
          "estimated_diameter_min" : 140.9142704751,
          "estimated_diameter_max" : 315.0938877822
        },
        "miles" : {
          "estimated_diameter_min" : 0.0875600412,
          "estimated_diameter_max" : 0.1957902041
        },
        "feet" : {
          "estimated_diameter_min" : 462.3171751456,
          "estimated_diameter_max" : 1033.7726307913
        }
      },
      "is_potentially_hazardous_asteroid" : false,
      "close_approach_data" : [ {
        "close_approach_date" : "2001-10-15",
        "epoch_date_close_approach" : 1003129200000,
        "relative_velocity" : {
          "kilometers_per_second" : "13.9409246161",
          "kilometers_per_hour" : "50187.32861801",
          "miles_per_hour" : "31184.4542737852"
        },
        "miss_distance" : {
          "astronomical" : "0.4587318162",
          "lunar" : "178.446685791",
          "kilometers" : "68625304",
          "miles" : "42641788"
        },
        "orbiting_body" : "Earth"
      } ],
      "orbital_data" : {
        "orbit_id" : "6",
        "orbit_determination_date" : "2017-08-31 06:18:05",
        "orbit_uncertainty" : "4",
        "minimum_orbit_intersection" : ".239149",
        "jupiter_tisserand_invariant" : "5.528",
        "epoch_osculation" : "2458000.5",
        "eccentricity" : ".3077252219037515",
        "semi_major_axis" : "1.099363863767209",
        "inclination" : "24.60649083154923",
        "ascending_node_longitude" : "214.7836033081332",
        "orbital_period" : "421.0276453003469",
        "perihelion_distance" : ".7610618748364794",
        "perihelion_argument" : "348.0392807203724",
        "aphelion_distance" : "1.437665852697939",
        "perihelion_time" : "2457888.125084776200",
        "mean_anomaly" : "96.08625450642003",
        "mean_motion" : ".8550507407730629",
        "equinox" : "J2000"
      }
    } ]
  }
}